      2.10          N: GNSS NAV DATA                        RINEX VERSION / TYPE
fic2rin                                 07/12/2021 00:17:26 PGM / RUN BY / DATE
                                                            END OF HEADER
 3 21  7 11 18  0  0.0-2.175993286073e-04-1.148237060988e-11 0.000000000000e+00
    4.700000000000e+01-1.194375000000e+02 4.144458347611e-09 1.593962025179e+00
   -6.286427378654e-06 3.701448673382e-03 8.890405297279e-06 5.153570299149e+03
    6.480000000000e+04-1.098960638046e-07 3.008661910548e+00 5.215406417847e-08
    9.703186304200e-01 2.136562500000e+02 8.822952445784e-01-7.851041313098e-09
   -1.835790753768e-10 1.000000000000e+00 2.166000000000e+03 0.000000000000e+00
    2.400000000000e+00 0.000000000000e+00 1.862645149231e-09 4.700000000000e+01
    5.760000000000e+04 4.000000000000e+00
12 21  7 11 18  0  0.0-6.721867248416e-05-5.229594535194e-12 0.000000000000e+00
    7.100000000000e+01 2.865625000000e+01 3.975165581602e-09 1.275965591237e+00
    1.424923539162e-06 8.309282595292e-03 1.078285276890e-05 5.153713911057e+03
    6.480000000000e+04-1.601874828339e-07-6.190096178352e-02-6.332993507385e-08
    9.734032341519e-01 1.767187500000e+02 1.228615567536e+00-7.729607683472e-09
   -4.582333729736e-10 1.000000000000e+00 2.166000000000e+03 0.000000000000e+00
    2.400000000000e+00 0.000000000000e+00-1.257285475731e-08 7.100000000000e+01
    5.760000000000e+04 4.000000000000e+00
 8 21  7 11 18  0  0.0-2.842722460628e-05-1.477928890381e-12 0.000000000000e+00
    7.600000000000e+01 1.291250000000e+02 4.291607334100e-09-1.372167161664e+00
    6.455928087234e-06 6.357132690027e-03 6.370246410370e-06 5.153625736237e+03
    6.480000000000e+04 1.490116119385e-08 8.954295366801e-01-1.117587089539e-07
    9.670043090509e-01 2.593125000000e+02 6.034469929037e-02-7.969617680851e-09
    3.357282701443e-10 1.000000000000e+00 2.166000000000e+03 0.000000000000e+00
    2.400000000000e+00 0.000000000000e+00 5.122274160385e-09 7.600000000000e+01
    5.760000000000e+04 4.000000000000e+00
 6 21  7 11 18  0  0.0 3.867829218507e-05 5.456968210638e-12 0.000000000000e+00
    6.800000000000e+01-2.062500000000e+01 4.442327897931e-09 2.820668859128e+00
   -8.977949619293e-07 2.176281413995e-03 4.004687070847e-07 5.153534065247e+03
    6.480000000000e+04 4.656612873077e-08 1.963272527073e+00 6.891787052155e-08
    9.840923727917e-01 3.844375000000e+02-9.516737672952e-01-8.296417007641e-09
   -3.607293115380e-11 1.000000000000e+00 2.166000000000e+03 0.000000000000e+00
    2.400000000000e+00 0.000000000000e+00 4.190951585770e-09 6.800000000000e+01
    5.760000000000e+04 4.000000000000e+00
 7 21  7 11 18  0  0.0 1.999875530601e-04 8.981260180008e-12 0.000000000000e+00
    9.800000000000e+01-8.406250000000e+00 5.019137638658e-09 2.031126520915e+00
   -6.537884473801e-07 1.517554430757e-02 5.396082997322e-06 5.153739816666e+03
    6.480000000000e+04-2.514570951462e-07-1.172658933449e+00-2.253800630569e-07
    9.510973775720e-01 2.730000000000e+02-2.318444431899e+00-8.145339286076e-09
   -1.578637185147e-10 1.000000000000e+00 2.166000000000e+03 0.000000000000e+00
    2.400000000000e+00 0.000000000000e+00-1.117587089539e-08 9.800000000000e+01
    5.760000000000e+04 4.000000000000e+00
 4 21  7 11 18  0  0.0-2.021365799010e-04-7.958078640513e-13 0.000000000000e+00
    1.480000000000e+02 7.281250000000e+00 4.420541276145e-09-1.996345511918e+00
    3.352761268616e-07 1.284645055421e-03 9.428709745407e-06 5.153721025467e+03
    6.480000000000e+04-8.009374141693e-08-2.194228493738e+00 4.097819328308e-08
    9.604258458658e-01 1.971250000000e+02-2.951910704210e+00-7.795681864298e-09
    5.110927176346e-10 1.000000000000e+00 2.166000000000e+03 0.000000000000e+00
    2.400000000000e+00 0.000000000000e+00-4.190951585770e-09 6.600000000000e+02
    5.760000000000e+04 4.000000000000e+00
29 21  7 11 18  0  0.0-3.785416483879e-04-6.025402399246e-12 0.000000000000e+00
    5.400000000000e+01 1.255625000000e+02 4.008024093148e-09-1.344064859388e+00
    6.465241312981e-06 1.971599296667e-03 6.841495633125e-06 5.153612689972e+03
    6.480000000000e+04-2.421438694000e-08 9.866316621061e-01-2.235174179077e-08
    9.836709426660e-01 2.660000000000e+02 2.226143059588e+00-7.847826893491e-09
    3.450143712334e-10 1.000000000000e+00 2.166000000000e+03 0.000000000000e+00
    2.400000000000e+00 0.000000000000e+00-9.778887033463e-09 5.400000000000e+01
    5.760000000000e+04 4.000000000000e+00
30 21  7 11 18  0  0.0-4.495894536376e-04-4.433786671143e-12 0.000000000000e+00
    5.500000000000e+01-6.375000000000e+00 5.373795268714e-09 1.878210466319e+00
   -3.017485141754e-07 5.348440725356e-03 5.269423127174e-06 5.153668165207e+03
    6.480000000000e+04-6.891787052155e-08-1.156169782518e+00 3.725290298462e-09
    9.363121619370e-01 2.677500000000e+02-2.744236414610e+00-8.352847929644e-09
   -2.214377952016e-10 1.000000000000e+00 2.166000000000e+03 0.000000000000e+00
    2.400000000000e+00 0.000000000000e+00 3.725290298462e-09 5.500000000000e+01
    5.760000000000e+04 4.000000000000e+00
27 21  7 11 18  0  0.0-1.612929627299e-04-5.911715561524e-12 0.000000000000e+00
    3.500000000000e+01 1.221562500000e+02 4.059097649138e-09-1.476944068214e+00
    6.312504410744e-06 9.431691607460e-03 6.327405571938e-06 5.153691766739e+03
    6.480000000000e+04 1.639127731323e-07 9.130541870689e-01-1.005828380585e-07
    9.755943357972e-01 2.623437500000e+02 6.362907443378e-01-7.832469110920e-09
    3.443000557650e-10 1.000000000000e+00 2.166000000000e+03 0.000000000000e+00
    2.400000000000e+00 0.000000000000e+00 1.862645149231e-09 3.500000000000e+01
    5.760000000000e+04 4.000000000000e+00
22 21  7 11 18  0  0.0-5.661542527378e-04 9.549694368616e-12 0.000000000000e+00
    4.600000000000e+01-1.233750000000e+02 4.895918220360e-09-2.478863496352e+00
   -6.422400474548e-06 6.931113428436e-03 7.785856723785e-06 5.153796094894e+03
    6.480000000000e+04-3.911554813385e-08 2.907637896504e+00 1.396983861923e-07
    9.359210595660e-01 2.131875000000e+02-9.227670253848e-01-8.105337619846e-09
   -2.060800126311e-10 1.000000000000e+00 2.166000000000e+03 0.000000000000e+00
    2.400000000000e+00 0.000000000000e+00-1.769512891769e-08 4.600000000000e+01
    5.760000000000e+04 4.000000000000e+00
13 21  7 11 18  0  0.0 1.563807018101e-04 5.002220859751e-12 0.000000000000e+00
    7.500000000000e+01-1.781250000000e+00 4.239105147173e-09-1.976730195753e+00
   -1.303851604462e-08 5.108340294100e-03 8.953735232353e-06 5.153679462433e+03
    6.480000000000e+04 7.823109626770e-08-2.096055556350e+00-6.519258022308e-08
    9.679602879799e-01 2.122812500000e+02 9.557343012327e-01-7.631032148834e-09
    4.946634618616e-10 1.000000000000e+00 2.166000000000e+03 0.000000000000e+00
    2.400000000000e+00 0.000000000000e+00-1.117587089539e-08 7.500000000000e+01
    5.760000000000e+04 4.000000000000e+00
32 21  7 11 18  0  0.0 1.459335908294e-05-1.932676241267e-12 0.000000000000e+00
    5.000000000000e+01-4.000000000000e+00 4.539474801632e-09-7.196479920446e-01
   -3.203749656677e-07 5.033988156356e-03 9.212642908096e-06 5.153693605423e+03
    6.480000000000e+04 7.264316082001e-08-2.235197353627e+00 7.636845111847e-08
    9.572991159450e-01 2.024375000000e+02-2.359584034809e+00-7.960331579762e-09
    3.900162457421e-10 1.000000000000e+00 2.166000000000e+03 0.000000000000e+00
    2.400000000000e+00 0.000000000000e+00 4.656612873077e-10 5.000000000000e+01
    5.760000000000e+04 4.000000000000e+00
26 21  7 11 18  0  0.0 1.093409955502e-04 4.661160346586e-12 0.000000000000e+00
    9.200000000000e+01 1.081250000000e+01 4.735911555440e-09 3.799241744411e-01
    6.556510925293e-07 5.919166142121e-03 9.953975677490e-06 5.153591424942e+03
    6.480000000000e+04 7.078051567078e-08-1.787702818827e-01 1.136213541031e-07
    9.416143227247e-01 1.776250000000e+02 3.032994659145e-01-8.073550581502e-09
   -4.360895934534e-10 1.000000000000e+00 2.166000000000e+03 0.000000000000e+00
    3.400000000000e+00 0.000000000000e+00 6.984919309616e-09 9.200000000000e+01
    5.760000000000e+04 4.000000000000e+00
24 21  7 11 18  0  0.0 1.702220179141e-04 1.466560206609e-11 0.000000000000e+00
    9.600000000000e+01 5.937500000000e-01 5.302363721875e-09 2.998750191445e+00
   -2.607703208923e-08 1.121180411428e-02 4.915520548820e-06 5.153712339401e+03
    6.480000000000e+04 1.862645149231e-08-1.251729651244e+00-1.080334186554e-07
    9.344763665201e-01 2.695625000000e+02 7.430603267138e-01-8.189626845116e-09
    4.143029716675e-11 1.000000000000e+00 2.166000000000e+03 0.000000000000e+00
    3.400000000000e+00 0.000000000000e+00 2.793967723846e-09 9.600000000000e+01
    5.760000000000e+04 4.000000000000e+00
20 21  7 11 18  0  0.0 5.202936008573e-04-3.410605131648e-13 0.000000000000e+00
    5.100000000000e+01-1.466250000000e+02 4.915561895741e-09-2.632845912897e+00
   -7.586553692818e-06 6.070454139262e-03 6.755813956261e-06 5.151761005402e+03
    6.480000000000e+04-1.452863216400e-07 2.861316574852e+00-3.725290298462e-09
    9.391868179065e-01 2.351562500000e+02 3.042834787425e+00-8.247843555790e-09
   -3.007268121931e-10 1.000000000000e+00 2.166000000000e+03 0.000000000000e+00
    2.400000000000e+00 0.000000000000e+00-8.381903171539e-09 5.100000000000e+01
    5.760000000000e+04 4.000000000000e+00
17 21  7 11 18  0  0.0 4.722210578620e-04 5.911715561524e-12 0.000000000000e+00
    2.700000000000e+01 1.403750000000e+02 3.997309361123e-09-1.405076254334e+00
    7.625669240952e-06 1.337568485178e-02 5.949288606644e-06 5.153633058548e+03
    6.480000000000e+04-7.264316082001e-08 9.740778368803e-01 3.203749656677e-07
    9.817913679627e-01 2.810000000000e+02-1.563415188255e+00-7.927473068216e-09
    3.285851154604e-10 1.000000000000e+00 2.166000000000e+03 0.000000000000e+00
    2.400000000000e+00 0.000000000000e+00-1.117587089539e-08 2.700000000000e+01
    5.760000000000e+04 4.000000000000e+00
